RESOURCESAT-2A          
1 41877U 16074A   26091.49472233  .00000148  00000+0  87756-4 0  9996
2 41877  98.7570 165.6137 0001251 328.8374  31.2728 14.21609375483408
CARTOSAT-2D             
1 41948U 17008A   26091.62550824 -.00000047  00000+0  93910-6 0  9991
2 41948  97.4187 152.3286 0005918 143.2968 216.8673 15.19316320505955
SENTINEL-2B             
1 42063U 17013A   26091.49420934  .00000156  00000+0  76260-4 0  9996
2 42063  98.5679 167.3610 0001196  95.7350 264.3969 14.30815923473673
CARTOSAT-2E             
1 42767U 17036C   26091.64262051 -.00000030  00000+0  17640-5 0  9993
2 42767  97.4355 152.6746 0003352 194.0934 166.0208 15.19283287486529
FORMOSAT-5              
1 42920U 17049A   26091.50134742  .00000251  00000+0  74881-4 0  9991
2 42920  98.2279 168.5105 0010796 327.0287  33.0233 14.50707597455557
SENTINEL-5P             
1 42969U 17064A   26091.37177411  .00000075  00000+0  56750-4 0  9995
2 42969  98.7913  34.0572 0001247  90.2410 269.8908 14.19504697438665
SKYSAT-C11              
1 42987U 17068A   26091.52409471  .00032226  00000+0  50079-3 0  9990
2 42987  97.4242 237.2986 0000544 157.1125 203.0153 15.53889752471326
SKYSAT-C10              
1 42988U 17068B   26091.51307692  .00012906  00000+0  40417-3 0  9990
2 42988  97.4379 227.7471 0001032 108.5789 251.5565 15.33232114470607
SKYSAT-C9               
1 42989U 17068C   26091.53113668  .00017034  00000+0  43318-3 0  9991
2 42989  97.4303 227.9987 0009557  59.2646 300.9540 15.39632599470950
SKYSAT-C8               
1 42990U 17068D   26091.53117960  .00014338  00000+0  41924-3 0  9997
2 42990  97.4396 227.2835 0001137  94.7992 265.3381 15.35383082470541
SKYSAT-C7               
1 42991U 17068E   26091.32645321  .00013003  00000+0  38095-3 0  9995
2 42991  97.4407 228.0612 0006457  34.2131 325.9527 15.35326464470570
SKYSAT-C6               
1 42992U 17068F   26091.35603514  .00011083  00000+0  34952-3 0  9991
2 42992  97.4441 228.3088 0003651  72.9860 287.1782 15.33043759470540
CARTOSAT-2F             
1 43111U 18004A   26091.47686198  .00006280  00000+0  30051-3 0  9997
2 43111  97.4121 152.2206 0002352 141.0178 219.1226 15.19319295455684
GAOFEN-1 02             
1 43259U 18031A   26091.58194892  .00000063  00000+0  16428-4 0  9993
2 43259  98.0601 154.2968 0001962 235.8232 124.2792 14.76444154431394
GAOFEN-1 03             
1 43260U 18031B   26091.49237138  .00000867  00000+0  13201-3 0  9993
2 43260  98.0588 154.0734 0001861 345.0215  15.0939 14.76462660431372
GAOFEN-1 04             
1 43262U 18031D   26091.53577756  .00001443  00000+0  21497-3 0  9990
2 43262  98.0606 154.2986 0001392  58.6523 301.4822 14.76428504431376
SENTINEL-3B             
1 43437U 18039A   26091.46758690  .00000135  00000+0  73979-4 0  9992
2 43437  98.6302 160.0821 0001502 114.6243 245.5094 14.26734322413188
