[{"OBJECT_NAME":"RESOURCESAT-2A","OBJECT_ID":"2016-074A","EPOCH":"2026-04-01T11:52:24.009312","MEAN_MOTION":14.21609375,"ECCENTRICITY":0.0001251,"INCLINATION":98.757,"RA_OF_ASC_NODE":165.6137,"ARG_OF_PERICENTER":328.8374,"MEAN_ANOMALY":31.2728,"EPHEMERIS_TYPE":0,"CLASSIFICATION_TYPE":"U","NORAD_CAT_ID":41877,"ELEMENT_SET_NO":999,"REV_AT_EPOCH":48340,"BSTAR":8.7756e-5,"MEAN_MOTION_DOT":1.48e-6,"MEAN_MOTION_DDOT":0},{"OBJECT_NAME":"CARTOSAT-2D","OBJECT_ID":"2017-008A","EPOCH":"2026-04-01T15:00:43.911936","MEAN_MOTION":15.1931632,"ECCENTRICITY":0.0005918,"INCLINATION":97.4187,"RA_OF_ASC_NODE":152.3286,"ARG_OF_PERICENTER":143.2968,"MEAN_ANOMALY":216.8673,"EPHEMERIS_TYPE":0,"CLASSIFICATION_TYPE":"U","NORAD_CAT_ID":41948,"ELEMENT_SET_NO":999,"REV_AT_EPOCH":50595,"BSTAR":9.391e-7,"MEAN_MOTION_DOT":-4.7e-7,"MEAN_MOTION_DDOT":0},{"OBJECT_NAME":"SENTINEL-2B","OBJECT_ID":"2017-013A","EPOCH":"2026-04-01T11:51:39.686976","MEAN_MOTION":14.30815923,"ECCENTRICITY":0.0001196,"INCLINATION":98.5679,"RA_OF_ASC_NODE":167.361,"ARG_OF_PERICENTER":95.735,"MEAN_ANOMALY":264.3969,"EPHEMERIS_TYPE":0,"CLASSIFICATION_TYPE":"U","NORAD_CAT_ID":42063,"ELEMENT_SET_NO":999,"REV_AT_EPOCH":47367,"BSTAR":7.626e-5,"MEAN_MOTION_DOT":1.56e-6,"MEAN_MOTION_DDOT":0},{"OBJECT_NAME":"CARTOSAT-2E","OBJECT_ID":"2017-036C","EPOCH":"2026-04-01T15:25:22.412064","MEAN_MOTION":15.19283287,"ECCENTRICITY":0.0003352,"INCLINATION":97.4355,"RA_OF_ASC_NODE":152.6746,"ARG_OF_PERICENTER":194.0934,"MEAN_ANOMALY":166.0208,"EPHEMERIS_TYPE":0,"CLASSIFICATION_TYPE":"U","NORAD_CAT_ID":42767,"ELEMENT_SET_NO":999,"REV_AT_EPOCH":48652,"BSTAR":1.764e-6,"MEAN_MOTION_DOT":-3.0e-7,"MEAN_MOTION_DDOT":0},{"OBJECT_NAME":"FORMOSAT-5","OBJECT_ID":"2017-049A","EPOCH":"2026-04-01T12:01:56.417088","MEAN_MOTION":14.50707597,"ECCENTRICITY":0.0010796,"INCLINATION":98.2279,"RA_OF_ASC_NODE":168.5105,"ARG_OF_PERICENTER":327.0287,"MEAN_ANOMALY":33.0233,"EPHEMERIS_TYPE":0,"CLASSIFICATION_TYPE":"U","NORAD_CAT_ID":42920,"ELEMENT_SET_NO":999,"REV_AT_EPOCH":45555,"BSTAR":7.4881e-5,"MEAN_MOTION_DOT":2.51e-6,"MEAN_MOTION_DDOT":0},{"OBJECT_NAME":"SENTINEL-5P","OBJECT_ID":"2017-064A","EPOCH":"2026-04-01T08:55:21.283104","MEAN_MOTION":14.19504697,"ECCENTRICITY":0.0001247,"INCLINATION":98.7913,"RA_OF_ASC_NODE":34.0572,"ARG_OF_PERICENTER":90.241,"MEAN_ANOMALY":269.8908,"EPHEMERIS_TYPE":0,"CLASSIFICATION_TYPE":"U","NORAD_CAT_ID":42969,"ELEMENT_SET_NO":999,"REV_AT_EPOCH":43866,"BSTAR":5.675e-5,"MEAN_MOTION_DOT":7.5e-7,"MEAN_MOTION_DDOT":0},{"OBJECT_NAME":"SKYSAT-C11","OBJECT_ID":"2017-068A","EPOCH":"2026-04-01T12:34:41.782944","MEAN_MOTION":15.53889752,"ECCENTRICITY":5.44e-5,"INCLINATION":97.4242,"RA_OF_ASC_NODE":237.2986,"ARG_OF_PERICENTER":157.1125,"MEAN_ANOMALY":203.0153,"EPHEMERIS_TYPE":0,"CLASSIFICATION_TYPE":"U","NORAD_CAT_ID":42987,"ELEMENT_SET_NO":999,"REV_AT_EPOCH":47132,"BSTAR":0.00050079,"MEAN_MOTION_DOT":0.00032226,"MEAN_MOTION_DDOT":0},{"OBJECT_NAME":"SKYSAT-C10","OBJECT_ID":"2017-068B","EPOCH":"2026-04-01T12:18:49.845888","MEAN_MOTION":15.33232114,"ECCENTRICITY":0.0001032,"INCLINATION":97.4379,"RA_OF_ASC_NODE":227.7471,"ARG_OF_PERICENTER":108.5789,"MEAN_ANOMALY":251.5565,"EPHEMERIS_TYPE":0,"CLASSIFICATION_TYPE":"U","NORAD_CAT_ID":42988,"ELEMENT_SET_NO":999,"REV_AT_EPOCH":47060,"BSTAR":0.00040417,"MEAN_MOTION_DOT":0.00012906,"MEAN_MOTION_DDOT":0},{"OBJECT_NAME":"SKYSAT-C9","OBJECT_ID":"2017-068C","EPOCH":"2026-04-01T12:44:50.209152","MEAN_MOTION":15.39632599,"ECCENTRICITY":0.0009557,"INCLINATION":97.4303,"RA_OF_ASC_NODE":227.9987,"ARG_OF_PERICENTER":59.2646,"MEAN_ANOMALY":300.954,"EPHEMERIS_TYPE":0,"CLASSIFICATION_TYPE":"U","NORAD_CAT_ID":42989,"ELEMENT_SET_NO":999,"REV_AT_EPOCH":47095,"BSTAR":0.00043318,"MEAN_MOTION_DOT":0.00017034,"MEAN_MOTION_DDOT":0},{"OBJECT_NAME":"SKYSAT-C8","OBJECT_ID":"2017-068D","EPOCH":"2026-04-01T12:44:53.917440","MEAN_MOTION":15.35383082,"ECCENTRICITY":0.0001137,"INCLINATION":97.4396,"RA_OF_ASC_NODE":227.2835,"ARG_OF_PERICENTER":94.7992,"MEAN_ANOMALY":265.3381,"EPHEMERIS_TYPE":0,"CLASSIFICATION_TYPE":"U","NORAD_CAT_ID":42990,"ELEMENT_SET_NO":999,"REV_AT_EPOCH":47054,"BSTAR":0.00041924,"MEAN_MOTION_DOT":0.00014338,"MEAN_MOTION_DDOT":0},{"OBJECT_NAME":"SKYSAT-C7","OBJECT_ID":"2017-068E","EPOCH":"2026-04-01T07:50:05.557344","MEAN_MOTION":15.35326464,"ECCENTRICITY":0.0006457,"INCLINATION":97.4407,"RA_OF_ASC_NODE":228.0612,"ARG_OF_PERICENTER":34.2131,"MEAN_ANOMALY":325.9527,"EPHEMERIS_TYPE":0,"CLASSIFICATION_TYPE":"U","NORAD_CAT_ID":42991,"ELEMENT_SET_NO":999,"REV_AT_EPOCH":47057,"BSTAR":0.00038095,"MEAN_MOTION_DOT":0.00013003,"MEAN_MOTION_DDOT":0},{"OBJECT_NAME":"SKYSAT-C6","OBJECT_ID":"2017-068F","EPOCH":"2026-04-01T08:32:41.436096","MEAN_MOTION":15.33043759,"ECCENTRICITY":0.0003651,"INCLINATION":97.4441,"RA_OF_ASC_NODE":228.3088,"ARG_OF_PERICENTER":72.986,"MEAN_ANOMALY":287.1782,"EPHEMERIS_TYPE":0,"CLASSIFICATION_TYPE":"U","NORAD_CAT_ID":42992,"ELEMENT_SET_NO":999,"REV_AT_EPOCH":47054,"BSTAR":0.00034952,"MEAN_MOTION_DOT":0.00011083,"MEAN_MOTION_DDOT":0},{"OBJECT_NAME":"CARTOSAT-2F","OBJECT_ID":"2018-004A","EPOCH":"2026-04-01T11:26:40.875072","MEAN_MOTION":15.19319295,"ECCENTRICITY":0.0002352,"INCLINATION":97.4121,"RA_OF_ASC_NODE":152.2206,"ARG_OF_PERICENTER":141.0178,"MEAN_ANOMALY":219.1226,"EPHEMERIS_TYPE":0,"CLASSIFICATION_TYPE":"U","NORAD_CAT_ID":43111,"ELEMENT_SET_NO":999,"REV_AT_EPOCH":45568,"BSTAR":0.00030051,"MEAN_MOTION_DOT":6.28e-5,"MEAN_MOTION_DDOT":0},{"OBJECT_NAME":"GAOFEN-1 02","OBJECT_ID":"2018-031A","EPOCH":"2026-04-01T13:58:00.386688","MEAN_MOTION":14.76444154,"ECCENTRICITY":0.0001962,"INCLINATION":98.0601,"RA_OF_ASC_NODE":154.2968,"ARG_OF_PERICENTER":235.8232,"MEAN_ANOMALY":124.2792,"EPHEMERIS_TYPE":0,"CLASSIFICATION_TYPE":"U","NORAD_CAT_ID":43259,"ELEMENT_SET_NO":999,"REV_AT_EPOCH":43139,"BSTAR":1.6428e-5,"MEAN_MOTION_DOT":6.3e-7,"MEAN_MOTION_DDOT":0},{"OBJECT_NAME":"GAOFEN-1 03","OBJECT_ID":"2018-031B","EPOCH":"2026-04-01T11:49:00.887232","MEAN_MOTION":14.7646266,"ECCENTRICITY":0.0001861,"INCLINATION":98.0588,"RA_OF_ASC_NODE":154.0734,"ARG_OF_PERICENTER":345.0215,"MEAN_ANOMALY":15.0939,"EPHEMERIS_TYPE":0,"CLASSIFICATION_TYPE":"U","NORAD_CAT_ID":43260,"ELEMENT_SET_NO":999,"REV_AT_EPOCH":43137,"BSTAR":0.00013201,"MEAN_MOTION_DOT":8.67e-6,"MEAN_MOTION_DDOT":0},{"OBJECT_NAME":"GAOFEN-1 04","OBJECT_ID":"2018-031D","EPOCH":"2026-04-01T12:51:31.181184","MEAN_MOTION":14.76428504,"ECCENTRICITY":0.0001392,"INCLINATION":98.0606,"RA_OF_ASC_NODE":154.2986,"ARG_OF_PERICENTER":58.6523,"MEAN_ANOMALY":301.4822,"EPHEMERIS_TYPE":0,"CLASSIFICATION_TYPE":"U","NORAD_CAT_ID":43262,"ELEMENT_SET_NO":999,"REV_AT_EPOCH":43137,"BSTAR":0.00021497,"MEAN_MOTION_DOT":1.443e-5,"MEAN_MOTION_DDOT":0},{"OBJECT_NAME":"SENTINEL-3B","OBJECT_ID":"2018-039A","EPOCH":"2026-04-01T11:13:19.508160","MEAN_MOTION":14.26734322,"ECCENTRICITY":0.0001502,"INCLINATION":98.6302,"RA_OF_ASC_NODE":160.0821,"ARG_OF_PERICENTER":114.6243,"MEAN_ANOMALY":245.5094,"EPHEMERIS_TYPE":0,"CLASSIFICATION_TYPE":"U","NORAD_CAT_ID":43437,"ELEMENT_SET_NO":999,"REV_AT_EPOCH":41318,"BSTAR":7.3979e-5,"MEAN_MOTION_DOT":1.35e-6,"MEAN_MOTION_DDOT":0}]
